CCSDS_OMM_VERS = 2.0
CREATION_DATE  = 
ORIGINATOR     = 

OBJECT_NAME    = CZ-2C R/B
OBJECT_ID      = 2022-132E
CENTER_NAME    = EARTH
REF_FRAME      = TEME
TIME_SYSTEM    = UTC
MEAN_ELEMENT_THEORY = SGP/SGP4

EPOCH          = 2026-01-19T23:54:28.154016
MEAN_MOTION    = 15.57476080
ECCENTRICITY   = .00166612
INCLINATION    = 97.2947
RA_OF_ASC_NODE = 22.0037
ARG_OF_PERICENTER = 272.0041
MEAN_ANOMALY   = 87.9306

EPHEMERIS_TYPE = 0
CLASSIFICATION_TYPE = U
NORAD_CAT_ID   = 54039
ELEMENT_SET_NO = 999
REV_AT_EPOCH   = 18278
BSTAR          = .56952035E-3
MEAN_MOTION_DOT = .42141E-3
MEAN_MOTION_DDOT = 0

CCSDS_OMM_VERS = 2.0
CREATION_DATE  = 
ORIGINATOR     = 

OBJECT_NAME    = GSLV R/B
OBJECT_ID      = 2022-138AN
CENTER_NAME    = EARTH
REF_FRAME      = TEME
TIME_SYSTEM    = UTC
MEAN_ELEMENT_THEORY = SGP/SGP4

EPOCH          = 2026-01-19T23:26:35.623680
MEAN_MOTION    = 14.96359641
ECCENTRICITY   = .00206063
INCLINATION    = 87.3836
RA_OF_ASC_NODE = 182.6660
ARG_OF_PERICENTER = 334.5436
MEAN_ANOMALY   = 25.4778

EPHEMERIS_TYPE = 0
CLASSIFICATION_TYPE = U
NORAD_CAT_ID   = 54149
ELEMENT_SET_NO = 999
REV_AT_EPOCH   = 17664
BSTAR          = .34182111E-3
MEAN_MOTION_DOT = .3911E-4
MEAN_MOTION_DDOT = 0

CCSDS_OMM_VERS = 2.0
CREATION_DATE  = 
ORIGINATOR     = 

OBJECT_NAME    = XRISM
OBJECT_ID      = 2023-137A
CENTER_NAME    = EARTH
REF_FRAME      = TEME
TIME_SYSTEM    = UTC
MEAN_ELEMENT_THEORY = SGP/SGP4

EPOCH          = 2026-01-19T23:03:45.793152
MEAN_MOTION    = 15.10810849
ECCENTRICITY   = .00080327
INCLINATION    = 31.0011
RA_OF_ASC_NODE = 238.6871
ARG_OF_PERICENTER = 271.9194
MEAN_ANOMALY   = 88.0524

EPHEMERIS_TYPE = 0
CLASSIFICATION_TYPE = U
NORAD_CAT_ID   = 57800
ELEMENT_SET_NO = 999
REV_AT_EPOCH   = 13041
BSTAR          = .35692423E-3
MEAN_MOTION_DOT = .6178E-4
MEAN_MOTION_DDOT = 0

CCSDS_OMM_VERS = 2.0
CREATION_DATE  = 
ORIGINATOR     = 

OBJECT_NAME    = ACS3
OBJECT_ID      = 2024-077B
CENTER_NAME    = EARTH
REF_FRAME      = TEME
TIME_SYSTEM    = UTC
MEAN_ELEMENT_THEORY = SGP/SGP4

EPOCH          = 2026-01-19T13:40:07.963968
MEAN_MOTION    = 13.87298566
ECCENTRICITY   = .00546578
INCLINATION    = 97.2372
RA_OF_ASC_NODE = 331.7162
ARG_OF_PERICENTER = 239.3946
MEAN_ANOMALY   = 120.1819

EPHEMERIS_TYPE = 0
CLASSIFICATION_TYPE = U
NORAD_CAT_ID   = 59588
ELEMENT_SET_NO = 999
REV_AT_EPOCH   = 8738
BSTAR          = .71739901E-4
MEAN_MOTION_DOT = .56E-6
MEAN_MOTION_DDOT = 0

CCSDS_OMM_VERS = 2.0
CREATION_DATE  = 
ORIGINATOR     = 

OBJECT_NAME    = SZ-21 MODULE
OBJECT_ID      = 2025-246C
CENTER_NAME    = EARTH
REF_FRAME      = TEME
TIME_SYSTEM    = UTC
MEAN_ELEMENT_THEORY = SGP/SGP4

EPOCH          = 2026-01-19T17:37:14.644992
MEAN_MOTION    = 15.64766041
ECCENTRICITY   = .0002737
INCLINATION    = 41.4760
RA_OF_ASC_NODE = 143.8781
ARG_OF_PERICENTER = 205.5931
MEAN_ANOMALY   = 154.4774

EPHEMERIS_TYPE = 0
CLASSIFICATION_TYPE = U
NORAD_CAT_ID   = 66515
ELEMENT_SET_NO = 999
REV_AT_EPOCH   = 1039
BSTAR          = .287037E-3
MEAN_MOTION_DOT = .28507E-3
MEAN_MOTION_DDOT = 0

