CZ-2C R/B               
1 54039U 22132E   26019.99615919  .00042141  00000+0  56952-3 0  9999
2 54039  97.2947  22.0037 0016661 272.0041  87.9306 15.57476080182783
GSLV R/B                
1 54149U 22138AN  26019.97680120  .00003911  00000+0  34182-3 0  9994
2 54149  87.3836 182.6660 0020606 334.5436  25.4778 14.96359641176646
XRISM                   
1 57800U 23137A   26019.96094668  .00006178  00000+0  35692-3 0  9991
2 57800  31.0011 238.6871 0008032 271.9194  88.0524 15.10810849130412
ACS3                    
1 59588U 24077B   26019.56953662  .00000056  00000+0  71740-4 0  9998
2 59588  97.2372 331.7162 0054657 239.3946 120.1819 13.87298566 87386
SZ-21 MODULE            
1 66515U 25246C   26019.73419728  .00028507  00000+0  28704-3 0  9996
2 66515  41.4760 143.8781 0002737 205.5931 154.4774 15.64766041 10398
